ONEWEB-0656             
1 55817U 23029X   24199.66588893 -.00000035  00000+0 -11769-3 0  9996
2 55817  87.9191  53.5778 0001832 105.8168 254.3167 13.20771861 68818
ONEWEB-0657             
1 55818U 23029Y   24199.96634897  .00000014  00000+0  32875-5 0  9994
2 55818  87.9140  84.1141 0001287 106.8554 253.2720 13.19725933 66684
ONEWEB-0658             
1 55819U 23029Z   24199.96158572  .00000090  00000+0  19330-3 0  9999
2 55819  87.9138  84.0505 0001670  57.7011 302.4284 13.19724124 66697
ONEWEB-0661             
1 55821U 23029AB  24199.71522388  .00000168  00000+0  41963-3 0  9998
2 55821  87.8945  68.8960 0002186  71.8125 288.3242 13.14501608 67496
ONEWEB-0662             
1 55822U 23029AC  24199.67399149 -.00000188  00000+0 -54176-3 0  9995
2 55822  87.8944  68.9117 0001934  69.4769 290.6569 13.14502033 67534
ONEWEB-0663             
1 55823U 23029AD  24200.11299204  .00000060  00000+0  11589-3 0  9997
2 55823  87.9189  53.5491 0001935  70.6692 289.4651 13.20791872 69541
ONEWEB-0664             
1 55824U 23029AE  24200.10779670  .00000104  00000+0  22363-3 0  9998
2 55824  87.9192  53.5638 0002295  83.7130 276.4265 13.20770344 69550
